KUIPER-00270            
1 67791U 26030AD  26056.79537757  .00016817  00000+0  51142-3 0  9998
2 67791  51.8822 276.5940 0009903  22.1368 338.0043 15.34106398  3266
KUIPER-00274            
1 67792U 26030AE  26056.80856846  .00006603  00000+0  21994-3 0  9998
2 67792  51.8839 276.6818 0017252  33.7696 326.4384 15.32226415  3268
KUIPER-00275            
1 67793U 26030AF  26056.79314472 -.00011646  00000+0 -33378-3 0  9995
2 67793  51.8856 276.5860 0008356  19.8056 340.3253 15.34344343  3267
KUIPER-00276            
1 67794U 26030AG  26056.81163229  .00024637  00000+0  80089-3 0  9994
2 67794  51.8829 276.7006 0018333  29.9776 330.2254 15.31607751  3260
KUIPER-00279            
1 67795U 26030AH  26056.78958519  .00017301  00000+0  51459-3 0  9994
2 67795  51.8808 276.5557 0006119  17.1005 343.0186 15.34813815  3269
CREW DRAGON 12          
1 67796U 26031A   26056.57355615  .00009568  00000+0  18600-3 0  9998
2 67796  51.6319 132.2502 0008347 132.4308 227.7387 15.48286925554426
STARLINK-36800          
1 67797U 26032A   26054.66670139 -.01862359  94321-3 -60359-2 0  9997
2 67797  97.2870 240.3960 0001284  80.0984 214.9156 15.90904989  2520
STARLINK-36798          
1 67798U 26032B   26054.66670139 -.01865731  94824-3 -59881-2 0  9991
2 67798  97.2865 240.3974 0001244  75.9154 222.8269 15.91097752  2466
STARLINK-36804          
1 67799U 26032C   26054.66670139 -.01853662  93869-3 -58889-2 0  9997
2 67799  97.2863 240.3994 0001357  75.3637 227.4376 15.91296785  2469
STARLINK-36354          
1 67800U 26032D   26054.66670139 -.01853319  93987-3 -58406-2 0  9995
2 67800  97.2866 240.4012 0001230  78.0847 227.8964 15.91455237  2523
STARLINK-36773          
1 67801U 26032E   26054.66670139 -.01845584  93410-3 -57675-2 0  9999
2 67801  97.2859 240.4020 0001305  74.0978 235.2493 15.91618581  2465
STARLINK-36739          
1 67802U 26032F   26054.66670139 -.01847603  93924-3 -56745-2 0  9991
2 67802  97.2856 240.4047 0001263  71.9201 244.1424 15.91958078  2528
